STARLINK-1470           
1 45772U 20038AU  26068.60892913  .00054678  00000+0  19687-2 0  9990
2 45772  53.0480 174.6971 0002444  12.8687 347.2373 15.28074860317065
STARLINK-32615          
1 62034U 24216C   26068.81617889  .00018324  00000+0  67424-3 0  9993
2 62034  43.0001 255.7206 0002946 281.4764  78.5756 15.27553790 72736
